{
  "fetched_at": "2026-06-02T15:56:44.685954+00:00",
  "satellites": {
    "57166": {
      "name": "Meteor M2-3",
      "tle_line1": "1 57166U 23091A   26153.27312000  .00000014  00000+0  24814-4 0  9999",
      "tle_line2": "2 57166  98.6088 208.5557 0003496 197.1258 162.9804 14.24045437152397"
    },
    "59051": {
      "name": "Meteor M2-4",
      "tle_line1": "1 59051U 24039A   26153.27091278  .00000016  00000+0  26781-4 0  9995",
      "tle_line2": "2 59051  98.7004 112.7571 0006429 204.9150 155.1718 14.22427871117146"
    },
    "38771": {
      "name": "MetOp-B",
      "tle_line1": "1 38771U 12049A   26153.19625235  .00000128  00000+0  78426-4 0  9993",
      "tle_line2": "2 38771  98.6511 204.9938 0003029  53.1210 307.0245 14.21428341711133"
    },
    "43689": {
      "name": "MetOp-C",
      "tle_line1": "1 43689U 18087A   26153.21628461  .00000127  00000+0  78097-4 0  9995",
      "tle_line2": "2 43689  98.6650 213.0928 0001164 145.7346 214.3907 14.21507799392705"
    },
    "60543": {
      "name": "Arctic Weather Satellite",
      "tle_line1": "1 60543U 24149CD  26153.17599821  .00000916  00000+0  10104-3 0  9991",
      "tle_line2": "2 60543  97.6804 224.0701 0003159 133.6274 226.5207 14.89803719 97060"
    }
  }
}